{"type": "FeatureCollection", "features": [ {"type": "Feature", "properties": {"norad_id": 33825, "name": "COSMOS 2251 DEB", "group": "cosmos-2251-debris", "lat": 28.152272639651137, "lon": 34.60016395210046, "alt_km": 612.4468670204351, "timestamp": "2025-12-13T18:50:04.822935+00:00", "meta": {"OBJECT_NAME": "COSMOS 2251 DEB", "OBJECT_ID": "1993-036BS", "EPOCH": "2025-12-13T05:56:51.138240", "MEAN_MOTION": 14.69772573, "ECCENTRICITY": 0.00845542, "INCLINATION": 73.9856, "RA_OF_ASC_NODE": 26.8028, "ARG_OF_PERICENTER": 353.706, "MEAN_ANOMALY": 75.2038, "EPHEMERIS_TYPE": 0, "CLASSIFICATION_TYPE": "U", "NORAD_CAT_ID": 33825, "ELEMENT_SET_NO": 999, "REV_AT_EPOCH": 88887, "BSTAR": 0.0011696354, "MEAN_MOTION_DOT": 7.347e-05, "MEAN_MOTION_DDOT": 0}, "tle": {"line1": "1 33825U 93036BS  25347.24781410  .00007347  00000+0  11696-2 0  9995", "line2": "2 33825  73.9856  26.8028 0084554 353.7060  75.2038 14.69772573888872"}}, "geometry": {"type": "Point", "coordinates": [34.60016395210046, 28.152272639651137]}}, {"type": "Feature", "properties": {"norad_id": 33826, "name": "COSMOS 2251 DEB", "group": "cosmos-2251-debris", "lat": -30.473534911216134, "lon": -122.41029815359856, "alt_km": 754.5272564680135, "timestamp": "2025-12-13T18:50:04.822946+00:00", "meta": {"OBJECT_NAME": "COSMOS 2251 DEB", "OBJECT_ID": "1993-036BT", "EPOCH": "2025-12-13T06:35:14.400672", "MEAN_MOTION": 14.51726798, "ECCENTRICITY": 0.00831197, "INCLINATION": 74.0652, "RA_OF_ASC_NODE": 48.8705, "ARG_OF_PERICENTER": 93.0732, "MEAN_ANOMALY": 331.9417, "EPHEMERIS_TYPE": 0, "CLASSIFICATION_TYPE": "U", "NORAD_CAT_ID": 33826, "ELEMENT_SET_NO": 999, "REV_AT_EPOCH": 87777, "BSTAR": 0.001553946, "MEAN_MOTION_DOT": 6.506e-05, "MEAN_MOTION_DDOT": 0}, "tle": {"line1": "1 33826U 93036BT  25347.27447223  .00006506  00000+0  15539-2 0  9996", "line2": "2 33826  74.0652  48.8705 0083119  93.0732 331.9417 14.51726798877770"}}, "geometry": {"type": "Point", "coordinates": [-122.41029815359856, -30.473534911216134]}}, {"type": "Feature", "properties": {"norad_id": 33828, "name": "COSMOS 2251 DEB", "group": "cosmos-2251-debris", "lat": 71.21114959755157, "lon": -66.62777660650072, "alt_km": 750.7338575935655, "timestamp": "2025-12-13T18:50:04.822957+00:00", "meta": {"OBJECT_NAME": "COSMOS 2251 DEB", "OBJECT_ID": "1993-036BV", "EPOCH": "2025-12-13T04:03:27.332640", "MEAN_MOTION": 14.44335808, "ECCENTRICITY": 0.002946, "INCLINATION": 74.0467, "RA_OF_ASC_NODE": 237.2918, "ARG_OF_PERICENTER": 310.1661, "MEAN_ANOMALY": 169.3912, "EPHEMERIS_TYPE": 0, "CLASSIFICATION_TYPE": "U", "NORAD_CAT_ID": 33828, "ELEMENT_SET_NO": 999, "REV_AT_EPOCH": 88319, "BSTAR": 0.00072397325, "MEAN_MOTION_DOT": 2.479e-05, "MEAN_MOTION_DDOT": 0}, "tle": {"line1": "1 33828U 93036BV  25347.16906635  .00002479  00000+0  72397-3 0  9994", "line2": "2 33828  74.0467 237.2918 0029460 310.1661 169.3912 14.44335808883195"}}, "geometry": {"type": "Point", "coordinates": [-66.62777660650072, 71.21114959755157]}}, {"type": "Feature", "properties": {"norad_id": 33830, "name": "COSMOS 2251 DEB", "group": "cosmos-2251-debris", "lat": 69.85759451143312, "lon": -80.36305698008097, "alt_km": 631.5088627427504, "timestamp": "2025-12-13T18:50:04.822968+00:00", "meta": {"OBJECT_NAME": "COSMOS 2251 DEB", "OBJECT_ID": "1993-036BX", "EPOCH": "2025-12-13T02:29:55.258656", "MEAN_MOTION": 14.76907731, "ECCENTRICITY": 0.00423854, "INCLINATION": 74.0322, "RA_OF_ASC_NODE": 229.6516, "ARG_OF_PERICENTER": 349.6863, "MEAN_ANOMALY": 69.9049, "EPHEMERIS_TYPE": 0, "CLASSIFICATION_TYPE": "U", "NORAD_CAT_ID": 33830, "ELEMENT_SET_NO": 999, "REV_AT_EPOCH": 89477, "BSTAR": 0.0013357287, "MEAN_MOTION_DOT": 9.514e-05, "MEAN_MOTION_DDOT": 0}, "tle": {"line1": "1 33830U 93036BX  25347.10411179  .00009514  00000+0  13357-2 0  9992", "line2": "2 33830  74.0322 229.6516 0042385 349.6863  69.9049 14.76907731894776"}}, "geometry": {"type": "Point", "coordinates": [-80.36305698008097, 69.85759451143312]}}, {"type": "Feature", "properties": {"norad_id": 33832, "name": "COSMOS 2251 DEB", "group": "cosmos-2251-debris", "lat": 61.554530093992234, "lon": -120.16310258054378, "alt_km": 702.0793893806349, "timestamp": "2025-12-13T18:50:04.822989+00:00", "meta": {"OBJECT_NAME": "COSMOS 2251 DEB", "OBJECT_ID": "1993-036BZ", "EPOCH": "2025-12-13T01:00:32.813280", "MEAN_MOTION": 14.60654035, "ECCENTRICITY": 0.00248212, "INCLINATION": 74.0541, "RA_OF_ASC_NODE": 209.3977, "ARG_OF_PERICENTER": 240.4066, "MEAN_ANOMALY": 241.8525, "EPHEMERIS_TYPE": 0, "CLASSIFICATION_TYPE": "U", "NORAD_CAT_ID": 33832, "ELEMENT_SET_NO": 999, "REV_AT_EPOCH": 88429, "BSTAR": 0.0018971978, "MEAN_MOTION_DOT": 9.258e-05, "MEAN_MOTION_DDOT": 0}, "tle": {"line1": "1 33832U 93036BZ  25347.04204645  .00009258  00000+0  18972-2 0  9998", "line2": "2 33832  74.0541 209.3977 0024821 240.4066 241.8525 14.60654035884290"}}, "geometry": {"type": "Point", "coordinates": [-120.16310258054378, 61.554530093992234]}}, {"type": "Feature", "properties": {"norad_id": 33835, "name": "COSMOS 2251 DEB", "group": "cosmos-2251-debris", "lat": -73.93519234625835, "lon": 2.1769476231979428, "alt_km": 709.3981175277713, "timestamp": "2025-12-13T18:50:04.823012+00:00", "meta": {"OBJECT_NAME": "COSMOS 2251 DEB", "OBJECT_ID": "1993-036CC", "EPOCH": "2025-12-13T08:03:39.212928", "MEAN_MOTION": 14.6226463, "ECCENTRICITY": 0.00546395, "INCLINATION": 74.0567, "RA_OF_ASC_NODE": 99.9687, "ARG_OF_PERICENTER": 153.3173, "MEAN_ANOMALY": 272.0501, "EPHEMERIS_TYPE": 0, "CLASSIFICATION_TYPE": "U", "NORAD_CAT_ID": 33835, "ELEMENT_SET_NO": 999, "REV_AT_EPOCH": 88798, "BSTAR": 0.0017392132, "MEAN_MOTION_DOT": 8.942e-05, "MEAN_MOTION_DDOT": 0}, "tle": {"line1": "1 33835U 93036CC  25347.33587052  .00008942  00000+0  17392-2 0  9993", "line2": "2 33835  74.0567  99.9687 0054639 153.3173 272.0501 14.62264630887982"}}, "geometry": {"type": "Point", "coordinates": [2.1769476231979428, -73.93519234625835]}}, {"type": "Feature", "properties": {"norad_id": 33836, "name": "COSMOS 2251 DEB", "group": "cosmos-2251-debris", "lat": -3.670541691075394, "lon": -104.16561264841312, "alt_km": 639.8261895099349, "timestamp": "2025-12-13T18:50:04.823038+00:00", "meta": {"OBJECT_NAME": "COSMOS 2251 DEB", "OBJECT_ID": "1993-036CD", "EPOCH": "2025-12-12T18:48:33.739776", "MEAN_MOTION": 14.79623029, "ECCENTRICITY": 0.00225741, "INCLINATION": 73.997, "RA_OF_ASC_NODE": 258.8638, "ARG_OF_PERICENTER": 112.0113, "MEAN_ANOMALY": 314.4402, "EPHEMERIS_TYPE": 0, "CLASSIFICATION_TYPE": "U", "NORAD_CAT_ID": 33836, "ELEMENT_SET_NO": 999, "REV_AT_EPOCH": 64089, "BSTAR": 0.0019144744, "MEAN_MOTION_DOT": 0.00014414, "MEAN_MOTION_DDOT": 0}, "tle": {"line1": "1 33836U 93036CD  25346.78372384  .00014414  00000+0  19145-2 0  9991", "line2": "2 33836  73.9970 258.8638 0022574 112.0113 314.4402 14.79623029640897"}}, "geometry": {"type": "Point", "coordinates": [-104.16561264841312, -3.670541691075394]}}, {"type": "Feature", "properties": {"norad_id": 33837, "name": "COSMOS 2251 DEB", "group": "cosmos-2251-debris", "lat": -44.24778079071372, "lon": -110.15273948223425, "alt_km": 712.811183996856, "timestamp": "2025-12-13T18:50:04.823050+00:00", "meta": {"OBJECT_NAME": "COSMOS 2251 DEB", "OBJECT_ID": "1993-036CE", "EPOCH": "2025-12-12T21:55:49.105920", "MEAN_MOTION": 14.50702445, "ECCENTRICITY": 0.00358614, "INCLINATION": 74.0131, "RA_OF_ASC_NODE": 55.2706, "ARG_OF_PERICENTER": 276.9614, "MEAN_ANOMALY": 82.7468, "EPHEMERIS_TYPE": 0, "CLASSIFICATION_TYPE": "U", "NORAD_CAT_ID": 33837, "ELEMENT_SET_NO": 999, "REV_AT_EPOCH": 88798, "BSTAR": 0.00040964028, "MEAN_MOTION_DOT": 1.595e-05, "MEAN_MOTION_DDOT": 0}, "tle": {"line1": "1 33837U 93036CE  25346.91376280  .00001595  00000+0  40964-3 0  9996", "line2": "2 33837  74.0131  55.2706 0035861 276.9614  82.7468 14.50702445887982"}}, "geometry": {"type": "Point", "coordinates": [-110.15273948223425, -44.24778079071372]}}, {"type": "Feature", "properties": {"norad_id": 33838, "name": "COSMOS 2251 DEB", "group": "cosmos-2251-debris", "lat": 74.01982497068744, "lon": -120.44425702727972, "alt_km": 743.0737602692152, "timestamp": "2025-12-13T18:50:04.823060+00:00", "meta": {"OBJECT_NAME": "COSMOS 2251 DEB", "OBJECT_ID": "1993-036CF", "EPOCH": "2025-12-13T04:01:56.280864", "MEAN_MOTION": 14.48365918, "ECCENTRICITY": 0.00274542, "INCLINATION": 74.0364, "RA_OF_ASC_NODE": 149.0114, "ARG_OF_PERICENTER": 270.84, "MEAN_ANOMALY": 205.0489, "EPHEMERIS_TYPE": 0, "CLASSIFICATION_TYPE": "U", "NORAD_CAT_ID": 33838, "ELEMENT_SET_NO": 999, "REV_AT_EPOCH": 88575, "BSTAR": 0.00066796644, "MEAN_MOTION_DOT": 2.485e-05, "MEAN_MOTION_DDOT": 0}, "tle": {"line1": "1 33838U 93036CF  25347.16801251  .00002485  00000+0  66797-3 0  9997", "line2": "2 33838  74.0364 149.0114 0027454 270.8400 205.0489 14.48365918885754"}}, "geometry": {"type": "Point", "coordinates": [-120.44425702727972, 74.01982497068744]}}, {"type": "Feature", "properties": {"norad_id": 33839, "name": "COSMOS 2251 DEB", "group": "cosmos-2251-debris", "lat": 70.18339758618112, "lon": -102.94531868679165, "alt_km": 703.0944332514582, "timestamp": "2025-12-13T18:50:04.823071+00:00", "meta": {"OBJECT_NAME": "COSMOS 2251 DEB", "OBJECT_ID": "1993-036CG", "EPOCH": "2025-12-13T01:11:09.155328", "MEAN_MOTION": 14.6442234, "ECCENTRICITY": 0.00851149, "INCLINATION": 74.039, "RA_OF_ASC_NODE": 205.885, "ARG_OF_PERICENTER": 317.8915, "MEAN_ANOMALY": 204.2144, "EPHEMERIS_TYPE": 0, "CLASSIFICATION_TYPE": "U", "NORAD_CAT_ID": 33839, "ELEMENT_SET_NO": 999, "REV_AT_EPOCH": 89584, "BSTAR": 0.00036997669, "MEAN_MOTION_DOT": 2.03e-05, "MEAN_MOTION_DDOT": 0}, "tle": {"line1": "1 33839U 93036CG  25347.04941152  .00002030  00000+0  36998-3 0  9996", "line2": "2 33839  74.0390 205.8850 0085114 317.8915 204.2144 14.64422340895843"}}, "geometry": {"type": "Point", "coordinates": [-102.94531868679165, 70.18339758618112]}}]}